STARLINK-30429          
1 57876U 23144N   26187.42868086  .00003099  00000+0  12210-3 0  9992
2 57876  43.0004 334.9199 0001444 266.6276  93.4410 15.27573105155796
STARLINK-30864          
1 58243U 23171P   26187.42994843 -.00001645  00000+0 -50270-4 0  9998
2 58243  43.0048 334.7108 0002342 281.2339  78.8249 15.27558667147796
STARLINK-30881          
1 58251U 23171X   26186.84271790 -.00001185  00000+0 -33560-4 0  9993
2 58251  42.9996 337.9466 0000970 258.5488 101.5255 15.27574796147808
STARLINK-32544          
1 61917U 24207F   26186.77778948  .00033928  00000+0  12376-2 0  9994
2 61917  43.0023 334.7127 0001647 271.9645  88.1018 15.27556617 92784
STARLINK-32717          
1 62491U 25003E   26187.49997625  .00018451  00000+0  67827-3 0  9998
2 62491  43.0003 337.8630 0001643 257.6919 102.3748 15.27583187 84843
STARLINK-32729          
1 62497U 25003L   26187.49354799  .00020526  00000+0  75321-3 0  9997
2 62497  43.0014 337.8050 0001843 264.0275  96.0367 15.27586127 84849
