{
  "schema": "int-telemetry-real-tle-snapshot/v1",
  "source": "celestrak",
  "group": "STARLINK",
  "format": "celestrak-gp-json",
  "source_url": "https://celestrak.org/NORAD/elements/gp.php?NAME=STARLINK&FORMAT=JSON",
  "downloaded_at": "2026-07-07T07:29:27.338Z",
  "generated_at": "2026-07-07T07:29:37.186Z",
  "fingerprint": "4a165085",
  "shell_id": "starlink-real-43deg-490km",
  "catalog_count": 10705,
  "shell_count": 3263,
  "selected_count": 348,
  "mean_altitude_km": 490.18,
  "mean_inclination_deg": 43.0022,
  "mean_mean_motion_rev_per_day": 15.27582862,
  "layout": {
    "planes": 6,
    "satellites_per_plane": 58,
    "selection_strategy": "target-shell-raan-clusters-even-slot-sampling",
    "raan_cluster_threshold_deg": 3,
    "target_inclination_deg": 43,
    "target_altitude_km": 490,
    "selected_shell_key": "43.0deg-500km",
    "target_shell_distance": 0.46
  },
  "satellites": [
    {
      "satellite_id": "P06-S29",
      "norad_id": 62491,
      "satellite_name": "STARLINK-32717",
      "cospar_id": "2025-003E",
      "shell_id": "starlink-real-43deg-490km",
      "plane_id": 5,
      "slot_id": 28,
      "epoch": "2026-07-06T11:59:57.948000",
      "inclination": 43.0003,
      "raan": 337.86300000000006,
      "eccentricity": 0.00016435,
      "argument_of_perigee": 257.69190000000003,
      "mean_anomaly": 102.3748,
      "mean_motion": 15.27583187,
      "bstar": 0.00067827085,
      "status": "active",
      "raw_omm": {
        "OBJECT_NAME": "STARLINK-32717",
        "OBJECT_ID": "2025-003E",
        "EPOCH": "2026-07-06T11:59:57.948000",
        "MEAN_MOTION": 15.27583187,
        "ECCENTRICITY": 0.00016435,
        "INCLINATION": 43.0003,
        "RA_OF_ASC_NODE": 337.863,
        "ARG_OF_PERICENTER": 257.6919,
        "MEAN_ANOMALY": 102.3748,
        "EPHEMERIS_TYPE": 0,
        "CLASSIFICATION_TYPE": "U",
        "NORAD_CAT_ID": 62491,
        "ELEMENT_SET_NO": 999,
        "REV_AT_EPOCH": 8484,
        "BSTAR": 0.00067827085,
        "MEAN_MOTION_DOT": 0.00018451,
        "MEAN_MOTION_DDOT": 0
      },
      "source": "celestrak",
      "source_url": "https://celestrak.org/NORAD/elements/gp.php?NAME=STARLINK&FORMAT=JSON",
      "catalog_fingerprint": "4a165085"
    },
    {
      "satellite_id": "P06-S30",
      "norad_id": 61917,
      "satellite_name": "STARLINK-32544",
      "cospar_id": "2024-207F",
      "shell_id": "starlink-real-43deg-490km",
      "plane_id": 5,
      "slot_id": 29,
      "epoch": "2026-07-05T18:40:01.011072",
      "inclination": 43.0023,
      "raan": 334.71270000000004,
      "eccentricity": 0.00016477,
      "argument_of_perigee": 271.96450000000004,
      "mean_anomaly": 88.10180000000003,
      "mean_motion": 15.27556617,
      "bstar": 0.0012376498,
      "status": "active",
      "raw_omm": {
        "OBJECT_NAME": "STARLINK-32544",
        "OBJECT_ID": "2024-207F",
        "EPOCH": "2026-07-05T18:40:01.011072",
        "MEAN_MOTION": 15.27556617,
        "ECCENTRICITY": 0.00016477,
        "INCLINATION": 43.0023,
        "RA_OF_ASC_NODE": 334.7127,
        "ARG_OF_PERICENTER": 271.9645,
        "MEAN_ANOMALY": 88.1018,
        "EPHEMERIS_TYPE": 0,
        "CLASSIFICATION_TYPE": "U",
        "NORAD_CAT_ID": 61917,
        "ELEMENT_SET_NO": 999,
        "REV_AT_EPOCH": 9278,
        "BSTAR": 0.0012376498,
        "MEAN_MOTION_DOT": 0.00033928,
        "MEAN_MOTION_DDOT": 0
      },
      "source": "celestrak",
      "source_url": "https://celestrak.org/NORAD/elements/gp.php?NAME=STARLINK&FORMAT=JSON",
      "catalog_fingerprint": "4a165085"
    },
    {
      "satellite_id": "P06-S31",
      "norad_id": 58251,
      "satellite_name": "STARLINK-30881",
      "cospar_id": "2023-171X",
      "shell_id": "starlink-real-43deg-490km",
      "plane_id": 5,
      "slot_id": 30,
      "epoch": "2026-07-05T20:13:30.826560",
      "inclination": 42.9996,
      "raan": 337.9466,
      "eccentricity": 0.00009709,
      "argument_of_perigee": 258.5488,
      "mean_anomaly": 101.52549999999997,
      "mean_motion": 15.27574796,
      "bstar": -0.000033559768,
      "status": "active",
      "raw_omm": {
        "OBJECT_NAME": "STARLINK-30881",
        "OBJECT_ID": "2023-171X",
        "EPOCH": "2026-07-05T20:13:30.826560",
        "MEAN_MOTION": 15.27574796,
        "ECCENTRICITY": 0.00009709,
        "INCLINATION": 42.9996,
        "RA_OF_ASC_NODE": 337.9466,
        "ARG_OF_PERICENTER": 258.5488,
        "MEAN_ANOMALY": 101.5255,
        "EPHEMERIS_TYPE": 0,
        "CLASSIFICATION_TYPE": "U",
        "NORAD_CAT_ID": 58251,
        "ELEMENT_SET_NO": 999,
        "REV_AT_EPOCH": 14780,
        "BSTAR": -0.000033559768,
        "MEAN_MOTION_DOT": -0.00001185,
        "MEAN_MOTION_DDOT": 0
      },
      "source": "celestrak",
      "source_url": "https://celestrak.org/NORAD/elements/gp.php?NAME=STARLINK&FORMAT=JSON",
      "catalog_fingerprint": "4a165085"
    },
    {
      "satellite_id": "P06-S32",
      "norad_id": 58243,
      "satellite_name": "STARLINK-30864",
      "cospar_id": "2023-171P",
      "shell_id": "starlink-real-43deg-490km",
      "plane_id": 5,
      "slot_id": 31,
      "epoch": "2026-07-06T10:19:07.544352",
      "inclination": 43.0048,
      "raan": 334.71080000000006,
      "eccentricity": 0.00023428,
      "argument_of_perigee": 281.23389999999995,
      "mean_anomaly": 78.82490000000001,
      "mean_motion": 15.27558667,
      "bstar": -0.000050270149,
      "status": "active",
      "raw_omm": {
        "OBJECT_NAME": "STARLINK-30864",
        "OBJECT_ID": "2023-171P",
        "EPOCH": "2026-07-06T10:19:07.544352",
        "MEAN_MOTION": 15.27558667,
        "ECCENTRICITY": 0.00023428,
        "INCLINATION": 43.0048,
        "RA_OF_ASC_NODE": 334.7108,
        "ARG_OF_PERICENTER": 281.2339,
        "MEAN_ANOMALY": 78.8249,
        "EPHEMERIS_TYPE": 0,
        "CLASSIFICATION_TYPE": "U",
        "NORAD_CAT_ID": 58243,
        "ELEMENT_SET_NO": 999,
        "REV_AT_EPOCH": 14779,
        "BSTAR": -0.000050270149,
        "MEAN_MOTION_DOT": -0.00001645,
        "MEAN_MOTION_DDOT": 0
      },
      "source": "celestrak",
      "source_url": "https://celestrak.org/NORAD/elements/gp.php?NAME=STARLINK&FORMAT=JSON",
      "catalog_fingerprint": "4a165085"
    },
    {
      "satellite_id": "P06-S33",
      "norad_id": 57876,
      "satellite_name": "STARLINK-30429",
      "cospar_id": "2023-144N",
      "shell_id": "starlink-real-43deg-490km",
      "plane_id": 5,
      "slot_id": 32,
      "epoch": "2026-07-06T10:17:18.026304",
      "inclination": 43.0004,
      "raan": 334.9199,
      "eccentricity": 0.00014443,
      "argument_of_perigee": 266.62760000000003,
      "mean_anomaly": 93.44100000000003,
      "mean_motion": 15.27573105,
      "bstar": 0.00012209906,
      "status": "active",
      "raw_omm": {
        "OBJECT_NAME": "STARLINK-30429",
        "OBJECT_ID": "2023-144N",
        "EPOCH": "2026-07-06T10:17:18.026304",
        "MEAN_MOTION": 15.27573105,
        "ECCENTRICITY": 0.00014443,
        "INCLINATION": 43.0004,
        "RA_OF_ASC_NODE": 334.9199,
        "ARG_OF_PERICENTER": 266.6276,
        "MEAN_ANOMALY": 93.441,
        "EPHEMERIS_TYPE": 0,
        "CLASSIFICATION_TYPE": "U",
        "NORAD_CAT_ID": 57876,
        "ELEMENT_SET_NO": 999,
        "REV_AT_EPOCH": 15579,
        "BSTAR": 0.00012209906,
        "MEAN_MOTION_DOT": 0.00003099,
        "MEAN_MOTION_DDOT": 0
      },
      "source": "celestrak",
      "source_url": "https://celestrak.org/NORAD/elements/gp.php?NAME=STARLINK&FORMAT=JSON",
      "catalog_fingerprint": "4a165085"
    },
    {
      "satellite_id": "P06-S34",
      "norad_id": 62497,
      "satellite_name": "STARLINK-32729",
      "cospar_id": "2025-003L",
      "shell_id": "starlink-real-43deg-490km",
      "plane_id": 5,
      "slot_id": 33,
      "epoch": "2026-07-06T11:50:42.546336",
      "inclination": 43.0014,
      "raan": 337.80500000000006,
      "eccentricity": 0.00018437,
      "argument_of_perigee": 264.0274999999999,
      "mean_anomaly": 96.0367,
      "mean_motion": 15.27586127,
      "bstar": 0.00075320576,
      "status": "active",
      "raw_omm": {
        "OBJECT_NAME": "STARLINK-32729",
        "OBJECT_ID": "2025-003L",
        "EPOCH": "2026-07-06T11:50:42.546336",
        "MEAN_MOTION": 15.27586127,
        "ECCENTRICITY": 0.00018437,
        "INCLINATION": 43.0014,
        "RA_OF_ASC_NODE": 337.805,
        "ARG_OF_PERICENTER": 264.0275,
        "MEAN_ANOMALY": 96.0367,
        "EPHEMERIS_TYPE": 0,
        "CLASSIFICATION_TYPE": "U",
        "NORAD_CAT_ID": 62497,
        "ELEMENT_SET_NO": 999,
        "REV_AT_EPOCH": 8484,
        "BSTAR": 0.00075320576,
        "MEAN_MOTION_DOT": 0.00020526,
        "MEAN_MOTION_DDOT": 0
      },
      "source": "celestrak",
      "source_url": "https://celestrak.org/NORAD/elements/gp.php?NAME=STARLINK&FORMAT=JSON",
      "catalog_fingerprint": "4a165085"
    }
  ]
}